{
  "type": "FeatureCollection",
  "features": [
    {
      "type": "Feature",
      "properties": {
        "norad_id": 30250,
        "name": "FENGYUN 1C DEB",
        "group": "fengyun-1c-debris",
        "lat": 80.92051796780468,
        "lon": -133.46858298493828,
        "alt_km": 924.2478191035689,
        "timestamp": "2025-12-05T16:54:14.923325+00:00",
        "meta_object_name": "FENGYUN 1C DEB",
        "meta_object_id": "1999-025XK",
        "meta_epoch": "2025-12-04T23:37:37.471872",
        "meta_mean_motion": 14.01610605,
        "meta_eccentricity": 0.0068603,
        "meta_inclination": 98.7531,
        "meta_ra_of_asc_node": 331.2441,
        "meta_arg_of_pericenter": 245.2988,
        "meta_mean_anomaly": 177.1315,
        "meta_ephemeris_type": 0,
        "meta_classification_type": "U",
        "meta_norad_cat_id": 30250,
        "meta_element_set_no": 999,
        "meta_rev_at_epoch": 96383,
        "meta_bstar": 0.00072179,
        "meta_mean_motion_dot": 1.073e-05,
        "meta_mean_motion_ddot": 0,
        "tle_line1": "1 30250U 99025XK  25338.98446148  .00001073  00000+0  72179-3 0  9999",
        "tle_line2": "2 30250  98.7531 331.2441 0068603 245.2988 177.1315 14.01610605963832"
      },
      "geometry": {
        "type": "Point",
        "coordinates": [
          -133.46858298493828,
          80.92051796780468
        ]
      }
    },
    {
      "type": "Feature",
      "properties": {
        "norad_id": 30251,
        "name": "FENGYUN 1C DEB",
        "group": "fengyun-1c-debris",
        "lat": 2.106702755460803,
        "lon": -1.9088904205181865,
        "alt_km": 833.8233146185366,
        "timestamp": "2025-12-05T16:54:14.923334+00:00",
        "meta_object_name": "FENGYUN 1C DEB",
        "meta_object_id": "1999-025XL",
        "meta_epoch": "2025-12-05T03:11:59.259264",
        "meta_mean_motion": 14.29276471,
        "meta_eccentricity": 0.00520459,
        "meta_inclination": 99.0495,
        "meta_ra_of_asc_node": 177.1626,
        "meta_arg_of_pericenter": 352.2883,
        "meta_mean_anomaly": 129.0898,
        "meta_ephemeris_type": 0,
        "meta_classification_type": "U",
        "meta_norad_cat_id": 30251,
        "meta_element_set_no": 999,
        "meta_rev_at_epoch": 98033,
        "meta_bstar": 0.00086703078,
        "meta_mean_motion_dot": 2.19e-05,
        "meta_mean_motion_ddot": 0,
        "tle_line1": "1 30251U 99025XL  25339.13332476  .00002190  00000+0  86703-3 0  9995",
        "tle_line2": "2 30251  99.0495 177.1626 0052045 352.2883 129.0898 14.29276471980339"
      },
      "geometry": {
        "type": "Point",
        "coordinates": [
          -1.9088904205181865,
          2.106702755460803
        ]
      }
    },
    {
      "type": "Feature",
      "properties": {
        "norad_id": 30252,
        "name": "FENGYUN 1C DEB",
        "group": "fengyun-1c-debris",
        "lat": 2.054004879473315,
        "lon": 175.25976758547543,
        "alt_km": 857.7211813200029,
        "timestamp": "2025-12-05T16:54:14.923344+00:00",
        "meta_object_name": "FENGYUN 1C DEB",
        "meta_object_id": "1999-025XM",
        "meta_epoch": "2025-12-05T00:59:26.954880",
        "meta_mean_motion": 14.0969158,
        "meta_eccentricity": 0.00657501,
        "meta_inclination": 98.7437,
        "meta_ra_of_asc_node": 354.2995,
        "meta_arg_of_pericenter": 263.6297,
        "meta_mean_anomaly": 151.866,
        "meta_ephemeris_type": 0,
        "meta_classification_type": "U",
        "meta_norad_cat_id": 30252,
        "meta_element_set_no": 999,
        "meta_rev_at_epoch": 96857,
        "meta_bstar": 0.0008342139,
        "meta_mean_motion_dot": 1.45e-05,
        "meta_mean_motion_ddot": 0,
        "tle_line1": "1 30252U 99025XM  25339.04128420  .00001450  00000+0  83421-3 0  9990",
        "tle_line2": "2 30252  98.7437 354.2995 0065750 263.6297 151.8660 14.09691580968572"
      },
      "geometry": {
        "type": "Point",
        "coordinates": [
          175.25976758547543,
          2.054004879473315
        ]
      }
    },
    {
      "type": "Feature",
      "properties": {
        "norad_id": 30253,
        "name": "FENGYUN 1C DEB",
        "group": "fengyun-1c-debris",
        "lat": 1.7037424608077452,
        "lon": -111.37634751999043,
        "alt_km": 1065.1464901732843,
        "timestamp": "2025-12-05T16:54:14.923352+00:00",
        "meta_object_name": "FENGYUN 1C DEB",
        "meta_object_id": "1999-025XN",
        "meta_epoch": "2025-12-04T19:40:50.514240",
        "meta_mean_motion": 13.73140204,
        "meta_eccentricity": 0.02220885,
        "meta_inclination": 98.7531,
        "meta_ra_of_asc_node": 67.5516,
        "meta_arg_of_pericenter": 62.4106,
        "meta_mean_anomaly": 64.4184,
        "meta_ephemeris_type": 0,
        "meta_classification_type": "U",
        "meta_norad_cat_id": 30253,
        "meta_element_set_no": 999,
        "meta_rev_at_epoch": 93905,
        "meta_bstar": 0.003296527,
        "meta_mean_motion_dot": 3.605e-05,
        "meta_mean_motion_ddot": 0,
        "tle_line1": "1 30253U 99025XN  25338.82002910  .00003605  00000+0  32965-2 0  9991",
        "tle_line2": "2 30253  98.7531  67.5516 0222088  62.4106  64.4184 13.73140204939057"
      },
      "geometry": {
        "type": "Point",
        "coordinates": [
          -111.37634751999043,
          1.7037424608077452
        ]
      }
    },
    {
      "type": "Feature",
      "properties": {
        "norad_id": 30257,
        "name": "FENGYUN 1C DEB",
        "group": "fengyun-1c-debris",
        "lat": 1.5478098704653473,
        "lon": 158.7043545429958,
        "alt_km": 840.9564513151954,
        "timestamp": "2025-12-05T16:54:14.923361+00:00",
        "meta_object_name": "FENGYUN 1C DEB",
        "meta_object_id": "1999-025XS",
        "meta_epoch": "2025-12-04T23:20:14.103744",
        "meta_mean_motion": 14.0971782,
        "meta_eccentricity": 0.005955,
        "meta_inclination": 98.7495,
        "meta_ra_of_asc_node": 337.7545,
        "meta_arg_of_pericenter": 120.8904,
        "meta_mean_anomaly": 304.2554,
        "meta_ephemeris_type": 0,
        "meta_classification_type": "U",
        "meta_norad_cat_id": 30257,
        "meta_element_set_no": 999,
        "meta_rev_at_epoch": 97108,
        "meta_bstar": 0.00018694,
        "meta_mean_motion_dot": 2.91e-06,
        "meta_mean_motion_ddot": 0,
        "tle_line1": "1 30257U 99025XS  25338.97238546  .00000291  00000+0  18694-3 0  9999",
        "tle_line2": "2 30257  98.7495 337.7545 0059550 120.8904 304.2554 14.09717820971080"
      },
      "geometry": {
        "type": "Point",
        "coordinates": [
          158.7043545429958,
          1.5478098704653473
        ]
      }
    },
    {
      "type": "Feature",
      "properties": {
        "norad_id": 30259,
        "name": "FENGYUN 1C DEB",
        "group": "fengyun-1c-debris",
        "lat": -64.38259572229427,
        "lon": -7.648312717354677,
        "alt_km": 602.2737786622092,
        "timestamp": "2025-12-05T16:54:14.923370+00:00",
        "meta_object_name": "FENGYUN 1C DEB",
        "meta_object_id": "1999-025XU",
        "meta_epoch": "2025-12-05T03:04:56.866944",
        "meta_mean_motion": 14.51443771,
        "meta_eccentricity": 0.02422802,
        "meta_inclination": 98.7618,
        "meta_ra_of_asc_node": 190.5135,
        "meta_arg_of_pericenter": 291.4674,
        "meta_mean_anomaly": 188.7433,
        "meta_ephemeris_type": 0,
        "meta_classification_type": "U",
        "meta_norad_cat_id": 30259,
        "meta_element_set_no": 999,
        "meta_rev_at_epoch": 99364,
        "meta_bstar": 0.00096290718,
        "meta_mean_motion_dot": 5.577e-05,
        "meta_mean_motion_ddot": 0,
        "tle_line1": "1 30259U 99025XU  25339.12843596  .00005577  00000+0  96291-3 0  9997",
        "tle_line2": "2 30259  98.7618 190.5135 0242280 291.4674 188.7433 14.51443771993647"
      },
      "geometry": {
        "type": "Point",
        "coordinates": [
          -7.648312717354677,
          -64.38259572229427
        ]
      }
    },
    {
      "type": "Feature",
      "properties": {
        "norad_id": 30261,
        "name": "FENGYUN 1C DEB",
        "group": "fengyun-1c-debris",
        "lat": 63.869089597410614,
        "lon": 3.6991964095115732,
        "alt_km": 112.56157155619712,
        "timestamp": "2025-12-05T16:54:14.923380+00:00",
        "meta_object_name": "FENGYUN 1C DEB",
        "meta_object_id": "1999-025XW",
        "meta_epoch": "2025-12-04T20:16:21.088992",
        "meta_mean_motion": 16.40041585,
        "meta_eccentricity": 0.0010771,
        "meta_inclination": 98.7225,
        "meta_ra_of_asc_node": 20.7356,
        "meta_arg_of_pericenter": 276.041,
        "meta_mean_anomaly": 83.9657,
        "meta_ephemeris_type": 0,
        "meta_classification_type": "U",
        "meta_norad_cat_id": 30261,
        "meta_element_set_no": 999,
        "meta_rev_at_epoch": 2246,
        "meta_bstar": 0.00095893,
        "meta_mean_motion_dot": 0.12478399,
        "meta_mean_motion_ddot": 3.3913e-06,
        "tle_line1": "1 30261U 99025XW  25338.84468853  .12478399  33913-5  95893-3 0  9998",
        "tle_line2": "2 30261  98.7225  20.7356 0010771 276.0410  83.9657 16.40041585 22462"
      },
      "geometry": {
        "type": "Point",
        "coordinates": [
          3.6991964095115732,
          63.869089597410614
        ]
      }
    }
  ]
}